ONEWEB-0309             
1 49095U 21075W   24040.40345880  .00000048  00000+0  90145-4 0  9998
2 49095  87.9245 176.6507 0001164  83.8767 276.2498 13.17649942120486
ONEWEB-0310             
1 49096U 21075X   24040.34787776 -.00000123  00000+0 -37648-3 0  9990
2 49096  87.9046 161.5590 0001540  99.0391 261.0912 13.12441938122532
ONEWEB-0311             
1 49097U 21075Y   24040.40977206  .00000064  00000+0  13056-3 0  9996
2 49097  87.9245 176.6499 0001346 121.5034 238.6229 13.17647434120531
ONEWEB-0313             
1 49099U 21075AA  24039.64275874 -.00026942  00000+0 -69852-1 0  9992
2 49099  87.9263 176.8373 0001530  67.5720 292.5573 13.17430807120403
ONEWEB-0314             
1 49100U 21075AB  24040.39553499  .00000089  00000+0  19639-3 0  9993
2 49100  87.9239 176.6500 0000996 109.2640 250.8599 13.17650903120472
ONEWEB-0315             
1 49101U 21075AC  24040.39872122  .00000467  00000+0  12626-2 0  9999
2 49101  87.9038 161.5485 0001672 109.3246 250.8064 13.12444553122522
